#aV2014  2 20  0  0  0.00000000     288 DD+AD WGS84 FIT  NGA
## 1780 345600.00000000   300.00000000 56708 0.0000000000000
+   31     1  2  3  4  5  6  7  8  9 10 11 12 13 14 15 16 17
+         18 19 20 21 22 23 24 25 26 27 28 29 31 32  0  0  0
+          0  0  0  0  0  0  0  0  0  0  0  0  0  0  0  0  0
+          0  0  0  0  0  0  0  0  0  0  0  0  0  0  0  0  0
+          0  0  0  0  0  0  0  0  0  0  0  0  0  0  0  0  0
++         2  2  2  2  2  2  2  2  2  2  2  2  2  2  2  2  2
++         2  2  2  2  2  2  2  2  2  2  2  2  2  2  0  0  0
++         0  0  0  0  0  0  0  0  0  0  0  0  0  0  0  0  0
++         0  0  0  0  0  0  0  0  0  0  0  0  0  0  0  0  0
++         0  0  0  0  0  0  0  0  0  0  0  0  0  0  0  0  0
%c cc cc ccc ccc cccc cccc cccc cccc ccccc ccccc ccccc ccccc
%c cc cc ccc ccc cccc cccc cccc cccc ccccc ccccc ccccc ccccc
%f  0.0000000  0.000000000  0.00000000000  0.000000000000000
%f  0.0000000  0.000000000  0.00000000000  0.000000000000000
%i    0    0    0    0      0      0      0      0         0
%i    0    0    0    0      0      0      0      0         0
/*      NGA, ST. LOUIS,MO.                                  
/*   EPHEMERIS COMPUTED FROM  1 DAYS OF DATA                
/*   EPOCHA SMOOTHER                                       
/* CCCCCCCCCCCCCCCCCCCCCCCCCCCCCCCCCCCCCCCCCCCCCCCCCCCCCCCCC
*  2014  2 20 20 55  0.00000000
P  1 -21726.021803 -11427.367346  10265.501339      0.299060                    
V  1  -7580.188629 -10878.576127 -27943.049740      0.020693                    
P  2  12751.994164  21630.564395   9658.672277    479.787714                    
V  2 -10407.985346  -6102.947064  27691.187207      0.021582                    
P  3 -11129.985561 -12216.051310 -21358.996188    328.433458                    
V  3  23464.993677 -11083.546052  -5878.171395      0.050529                    
P  4  -2031.459435  17713.622146  19305.632020      5.664909                    
V  4 -19348.121518 -16429.375213  13074.621601      0.002448                    
P  5   5061.569906  21760.861355 -14285.400025   -387.685300                    
V  5  -6922.396781  16981.160102  23639.368544      0.016174                    
P  6  -2106.457801 -15620.681377 -21292.480017    283.112717                    
V  6  25911.116196  -8489.049673   4060.412727      0.142577                    
P  7 -17430.695170   1558.770411 -20007.926850    316.081615                    
V  7 -17119.953052 -18811.392609  13088.902996      0.042057                    
P  8  -9467.441177  10973.089433 -22065.968249     12.015092                    
V  8 -18034.652874 -21859.418307  -3694.769870      0.001280                    
P  9  -7940.381942  13012.265027 -22267.182341    306.960599                    
V  9 -19409.323364 -18706.835411  -4266.839048      0.028032                    
P 10  -8658.563597  24698.451463   2529.494954   -115.149059                    
V 10  -2678.741939  -4527.367584  31395.397269     -0.016108                    
P 11 -23516.369325 -12590.386257   -913.055477   -466.013229                    
V 11   2700.164684  -4012.427878 -29954.792296     -0.032224                    
P 12  13046.014845   7104.462845  21981.716122    187.679438                    
V 12  -8120.713509  26737.452728  -3599.741120      0.023378                    
P 13 -26137.460718   5074.749859  -1041.165793     27.582343                    
V 13  -1484.267654  -1914.231634  32005.889955     -0.039252                    
P 14  16256.614171 -14147.090713  15642.042441    196.635694                    
V 14  19485.920832  -2060.132334 -22558.807242     -0.032227                    
P 15  19708.243842   6661.211624 -16724.627472   -164.228327                    
V 15 -19508.248366   8290.556216 -19456.790668     -0.020958                    
P 16  -3644.837106 -21389.610642 -15097.086873   -230.726813                    
V 16   7420.378373 -17790.518384  23814.113501      0.015213                    
P 17 -14608.219528  15020.167751  16433.640508    -70.047224                    
V 17 -20351.418551   2888.666592 -21280.474989     -0.034425                    
P 18  15768.619767 -13451.936340 -15988.016621    303.071388                    
V 18  -2414.942660  21401.531929 -20189.362604      0.022321                    
P 19 -18392.301936  -8899.601147 -17327.279681   -440.144826                    
V 19  21000.149440  -5146.352359 -19359.840154     -0.024294                    
P 20 -15296.590336  -4272.801044  21099.229844    163.489058                    
V 20   5393.315342 -26836.957282  -1437.095678      0.033808                    
P 21  17015.588002  -3702.442583 -19565.344511   -345.110570                    
V 21  17910.134692  19126.622716  11122.121813     -0.022556                    
P 22  10992.273321 -23111.377383  -6600.195926    214.640829                    
V 22   1686.204852   9422.754671 -29459.956011      0.025929                    
P 23 -24523.215506  -1351.207345  10706.680328      2.258390                    
V 23  12277.486462  -5704.664377  27247.830154     -0.032470                    
P 24  21259.303135  14974.663422   5624.437421    -23.684971                    
V 24   3240.357764   6933.906400 -30551.088049     -0.007248                    
P 25  15804.855590  -7353.190388  19942.574047     15.479974                    
V 25  -5237.153498  24926.558737  13424.178993      0.017367                    
P 26   7717.080110  13795.340454 -22044.947253    159.382593                    
V 26 -25913.317230   4785.598473  -5960.426870     -0.108033                    
P 27  -5422.128142 -14227.111976 -21765.492364    -19.180445                    
V 27  26566.610470  -7585.185790  -1622.144373     -0.009596                    
P 28 -12974.709051  21101.403912  -8775.082273    334.077285                    
V 28   1711.522261 -12081.323907 -29694.368498      0.028164                    
P 29  26098.900605  -4339.733344   2109.190337    512.540748                    
V 29  -1994.691729   3113.126818  31800.650008      0.029836                    
P 31  -1369.836217 -19191.106055  18329.628527    333.373967                    
V 31  16944.540564  15641.245477  18101.340537      0.002446                    
P 32  -8190.201864 -17265.284824  18727.818998   -482.233764                    
V 32   9026.496802 -21735.035697 -15608.729743      0.066009                    
EOF
